*******************************************************************************
JPL/HORIZONS                 225312 (1996 XB27)            2013-Jun-24 13:28:03
Rec #:225312 (+COV)   Soln.date: 2013-Apr-29_15:49:36     # obs: 68 (1996-2009)
 
FK5/J2000.0 helio. ecliptic osc. elements (AU, DAYS, DEG, period=Julian yrs):  
 
  EPOCH=  2452637.5 ! 2002-Dec-29.00 (CT)          Residual RMS= .57995        
   EC= .05807944051850202  QR= 1.119916349115571   TP= 2452534.4969590539      
   OM= 179.5980343477021   W=  57.70987308566528   IN= 2.464695322323464       
   A= 1.188971126962188    MA= 78.30638186895153   ADIST= 1.258025904808804    
   PER= 1.29648            N= .76023369            ANGMOM= .018725498          
   DAN= 1.1493             DDN= 1.2229             L= 237.2839554              
   B= 2.0833563            MOID= .1140860021114349 TP= 2002-Sep-16.9969590539  
 
Physical parameters (KM, SEC, rotational period in hours):
   GM= n.a.                RAD= n.a.               ROTPER= n.a.                
   H= 21.674               G= .150                 B-V= n.a.                   
                           ALBEDO= n.a.            STYP= n.a.                  
 
ASTEROID comments: 
1: soln ref.= JPL#30, OCC=0
2: source=ORB
*******************************************************************************
 
 
*******************************************************************************
Ephemeris / WWW_USER Mon Jun 24 13:28:03 2013 Pasadena, USA      / Horizons    
*******************************************************************************
Target body name: 225312 (1996 XB27)              {source: JPL#30}
Center body name: Solar System Barycenter (0)     {source: DE405}
Center-site name: BODY CENTER
*******************************************************************************
Start time      : A.D. 2027-Oct-04 00:00:00.0000 CT 
Stop  time      : A.D. 2027-Oct-07 00:00:00.0000 CT 
Step-size       : 60 minutes
*******************************************************************************
Center geodetic : 0.00000000,0.00000000,0.0000000 {E-lon(deg),Lat(deg),Alt(km)}
Center cylindric: 0.00000000,0.00000000,0.0000000 {E-lon(deg),Dxy(km),Dz(km)}
Center radii    : (undefined)                                                  
Small perturbers: Ceres, Pallas, Vesta            {source: SB405-CPV-2}
Small body GMs  : 6.32E+01, 1.43E+01, 1.78E+01 km^3/s^2                        
Output units    : KM-S                                                         
Output format   : 05
Reference frame : ICRF/J2000.0                                                 
Output type     : GEOMETRIC cartesian states
Coordinate systm: Ecliptic and Mean Equinox of Reference Epoch                 
*******************************************************************************
Initial FK5/J2000.0 heliocentric ecliptic osculating elements (AU, DAYS, DEG):
  EPOCH=  2452637.5 ! 2002-Dec-29.00 (CT)          Residual RMS= .57995        
   EC= .05807944051850202  QR= 1.119916349115571   TP= 2452534.4969590539      
   OM= 179.5980343477021   W=  57.70987308566528   IN= 2.464695322323464       
Asteroid physical parameters (KM, SEC, rotational period in hours):
   GM= n.a.                RAD= n.a.               ROTPER= n.a.                
   H= 21.674               G= .150                 B-V= n.a.                   
                           ALBEDO= n.a.            STYP= n.a.                  
*******************************************************************************
JDCT 
   VX    VY    VZ
*******************************************************************************
$$SOE
2461684.500000000 = A.D. 2027-Oct-06 00:00:00.0000 (CT)
   1.504519252330426E+00  2.650107928401277E+01 -1.142063431355039E+00
2461684.541666667 = A.D. 2027-Oct-06 01:00:00.0000 (CT)
   1.490227764624929E+00  2.650116156288127E+01 -1.142059594812629E+00
2461684.583333333 = A.D. 2027-Oct-06 02:00:00.0000 (CT)
   1.475936990784467E+00  2.650123638079091E+01 -1.142055437242104E+00
2461684.625000000 = A.D. 2027-Oct-06 03:00:00.0000 (CT)
   1.461646934406955E+00  2.650130373890379E+01 -1.142050958695509E+00
2461684.666666667 = A.D. 2027-Oct-06 04:00:00.0000 (CT)
   1.447357599087084E+00  2.650136363838332E+01 -1.142046159224949E+00
2461684.708333333 = A.D. 2027-Oct-06 05:00:00.0000 (CT)
   1.433068988418191E+00  2.650141608039429E+01 -1.142041038882579E+00
2461684.750000000 = A.D. 2027-Oct-06 06:00:00.0000 (CT)
   1.418781105994134E+00  2.650146106610278E+01 -1.142035597720613E+00
2461684.791666667 = A.D. 2027-Oct-06 07:00:00.0000 (CT)
   1.404493955405544E+00  2.650149859667623E+01 -1.142029835791323E+00
2461684.833333333 = A.D. 2027-Oct-06 08:00:00.0000 (CT)
   1.390207540241701E+00  2.650152867328340E+01 -1.142023753147031E+00
2461684.875000000 = A.D. 2027-Oct-06 09:00:00.0000 (CT)
   1.375921864092404E+00  2.650155129709439E+01 -1.142017349840126E+00
2461684.916666667 = A.D. 2027-Oct-06 10:00:00.0000 (CT)
   1.361636930544227E+00  2.650156646928062E+01 -1.142010625923040E+00
2461684.958333333 = A.D. 2027-Oct-06 11:00:00.0000 (CT)
   1.347352743182392E+00  2.650157419101485E+01 -1.142003581448271E+00
2461685.000000000 = A.D. 2027-Oct-06 12:00:00.0000 (CT)
   1.333069305592640E+00  2.650157446347115E+01 -1.141996216468371E+00
2461685.041666667 = A.D. 2027-Oct-06 13:00:00.0000 (CT)
   1.318786621357487E+00  2.650156728782495E+01 -1.141988531035944E+00
2461685.083333333 = A.D. 2027-Oct-06 14:00:00.0000 (CT)
   1.304504694058100E+00  2.650155266525298E+01 -1.141980525203655E+00
2461685.125000000 = A.D. 2027-Oct-06 15:00:00.0000 (CT)
   1.290223527276161E+00  2.650153059693327E+01 -1.141972199024220E+00
2461685.166666667 = A.D. 2027-Oct-06 16:00:00.0000 (CT)
   1.275943124590131E+00  2.650150108404523E+01 -1.141963552550417E+00
2461685.208333333 = A.D. 2027-Oct-06 17:00:00.0000 (CT)
   1.261663489577118E+00  2.650146412776954E+01 -1.141954585835072E+00
2461685.250000000 = A.D. 2027-Oct-06 18:00:00.0000 (CT)
   1.247384625814749E+00  2.650141972928823E+01 -1.141945298931074E+00
2461685.291666667 = A.D. 2027-Oct-06 19:00:00.0000 (CT)
   1.233106536877428E+00  2.650136788978462E+01 -1.141935691891359E+00
2461685.333333333 = A.D. 2027-Oct-06 20:00:00.0000 (CT)
   1.218829226338208E+00  2.650130861044340E+01 -1.141925764768932E+00
2461685.375000000 = A.D. 2027-Oct-06 21:00:00.0000 (CT)
   1.204552697770659E+00  2.650124189245051E+01 -1.141915517616839E+00
2461685.416666667 = A.D. 2027-Oct-06 22:00:00.0000 (CT)
   1.190276954745129E+00  2.650116773699325E+01 -1.141904950488192E+00
2461685.458333333 = A.D. 2027-Oct-06 23:00:00.0000 (CT)
   1.176002000830617E+00  2.650108614526020E+01 -1.141894063436151E+00
2461685.500000000 = A.D. 2027-Oct-07 00:00:00.0000 (CT)
   1.161727839596636E+00  2.650099711844129E+01 -1.141882856513936E+00
